{
"type": "FeatureCollection",
"name": "comunas_rm_subset",
"crs": { "type": "name", "properties": { "name": "urn:ogc:def:crs:OGC:1.3:CRS84" } },
"features": [
{ "type": "Feature", "properties": { "comuna": "Providencia" }, "geometry": { "type": "Polygon", "coordinates": [ [ [ -70.58444555672348, -33.431783924633287 ], [ -70.58443375735223, -33.431783405103545 ], [ -70.582749282345546, -33.433450087738159 ], [ -70.58224166144646, -33.433775502163321 ], [ -70.582587413117849, -33.434245778461211 ], [ -70.582611637087794, -33.434273027880799 ], [ -70.587000786701395, -33.439208199027185 ], [ -70.591697697334681, -33.446470890087177 ], [ -70.592792666410915, -33.447771845936067 ], [ -70.59795325505452, -33.444839268314013 ], [ -70.599183100780763, -33.444679125668664 ], [ -70.608765304152328, -33.445744295148806 ], [ -70.613890790227899, -33.44683327756632 ], [ -70.613744319022501, -33.447565690352008 ], [ -70.618432455810421, -33.448377147848035 ], [ -70.618764670768783, -33.447265749333546 ], [ -70.631526591344226, -33.449836012409627 ], [ -70.632851455471311, -33.445412625522188 ], [ -70.635380803189264, -33.436424116498543 ], [ -70.63535444751713, -33.436217014883788 ], [ -70.635371762544224, -33.435702744923979 ], [ -70.6362427447892, -33.430767294941752 ], [ -70.635049371561806, -33.428321815116661 ], [ -70.634378674997649, -33.425787407968642 ], [ -70.632347401782255, -33.421598535806559 ], [ -70.630323678008509, -33.42002244545484 ], [ -70.627113690274513, -33.419437523692139 ], [ -70.622401345686313, -33.416259180565483 ], [ -70.620203965890042, -33.414267112674338 ], [ -70.616764882605793, -33.410270621461997 ], [ -70.614542357168091, -33.409165537048175 ], [ -70.605869689038542, -33.409278193318649 ], [ -70.60652766186503, -33.410696120234803 ], [ -70.607872985122739, -33.415484036576011 ], [ -70.604668843624609, -33.417057164329798 ], [ -70.602567802752688, -33.417372898723968 ], [ -70.59788169436068, -33.420770564452177 ], [ -70.587420290057608, -33.428939431716593 ], [ -70.58444555672348, -33.431783924633287 ] ] ] } },
{ "type": "Feature", "properties": { "comuna": "Santiago Centro" }, "geometry": { "type": "Polygon", "coordinates": [ [ [ -70.651752161762801, -33.432116198124689 ], [ -70.645495371554389, -33.433599627587448 ], [ -70.635364302934121, -33.435924306197315 ], [ -70.63535444751713, -33.436217014883788 ], [ -70.635380803189264, -33.436424116498543 ], [ -70.632851455471311, -33.445412625522188 ], [ -70.631447381495718, -33.450100457588228 ], [ -70.626071072318098, -33.46857952623634 ], [ -70.625149350530947, -33.469602114534226 ], [ -70.624578830493988, -33.469956707249494 ], [ -70.62790693860299, -33.472357999518756 ], [ -70.634628255729666, -33.474660364131203 ], [ -70.637430183745835, -33.475849421291493 ], [ -70.641830847964727, -33.476872978057358 ], [ -70.642113730142654, -33.476895603689194 ], [ -70.650986222218947, -33.476948069116936 ], [ -70.655067341318244, -33.476724743157369 ], [ -70.66106340988847, -33.476124935195514 ], [ -70.67119829455207, -33.476283654544325 ], [ -70.671728248467417, -33.476387174434279 ], [ -70.671688079401164, -33.478469765496037 ], [ -70.680932061678376, -33.478464088960862 ], [ -70.680755391808077, -33.476479229974714 ], [ -70.676260700928381, -33.476669361341358 ], [ -70.672016760387208, -33.476532827090658 ], [ -70.672777184275219, -33.475176930504539 ], [ -70.672939428100364, -33.470634119043268 ], [ -70.680074079852176, -33.470714834103902 ], [ -70.679048053779084, -33.469436924990454 ], [ -70.678744565146857, -33.463737225290416 ], [ -70.677830569769455, -33.450944431639208 ], [ -70.679016192332583, -33.450729945203562 ], [ -70.679562712080084, -33.443934052138388 ], [ -70.691847982074165, -33.444489546275271 ], [ -70.691647352338606, -33.441927843305237 ], [ -70.691551348485888, -33.439503367368623 ], [ -70.688457571308618, -33.439013364838218 ], [ -70.686562862677675, -33.4388768462386 ], [ -70.685446882006943, -33.438802177219564 ], [ -70.683818556197068, -33.436682637680008 ], [ -70.681339656068857, -33.436155697742116 ], [ -70.680177891861362, -33.438449500561475 ], [ -70.680071474737872, -33.438450942839133 ], [ -70.680184215102656, -33.437139104923816 ], [ -70.680437411553697, -33.434245833936117 ], [ -70.680717769465659, -33.42981657816209 ], [ -70.679875829753811, -33.427911241830081 ], [ -70.678166069866819, -33.426855931971517 ], [ -70.67665653816843, -33.426827591622512 ], [ -70.671825642013872, -33.428308675661981 ], [ -70.671514564414153, -33.426868680289822 ], [ -70.671386670368818, -33.426515008227476 ], [ -70.661276657360517, -33.429937259400226 ], [ -70.651752161762801, -33.432116198124689 ] ] ] } },
{ "type": "Feature", "properties": { "comuna": "San Bernardo" }, "geometry": { "type": "Polygon", "coordinates": [ [ [ -70.766739235533834, -33.572199816552775 ], [ -70.767418492144344, -33.571961058244163 ], [ -70.763376830645583, -33.566433012817576 ], [ -70.754553187157825, -33.556490053150846 ], [ -70.744415943518291, -33.545204289365124 ], [ -70.732825992011996, -33.531863610537634 ], [ -70.726524445939489, -33.52407644486145 ], [ -70.726397530159531, -33.523914949381229 ], [ -70.7067412221365, -33.531239733293127 ], [ -70.706739964495085, -33.531225239843423 ], [ -70.685763972030884, -33.53897398104592 ], [ -70.685764321475517, -33.538974614492595 ], [ -70.685379117593484, -33.539111895606077 ], [ -70.685533202919217, -33.53939945325552 ], [ -70.687355388760665, -33.541885595129642 ], [ -70.687395838999592, -33.54192161576016 ], [ -70.686574091618724, -33.541806795783195 ], [ -70.691948099312569, -33.553601172145754 ], [ -70.69291822142894, -33.556130841159657 ], [ -70.695460187781677, -33.555897696400166 ], [ -70.697018680357985, -33.563154042684218 ], [ -70.697093508224512, -33.564830173804069 ], [ -70.70079800953927, -33.572966192461109 ], [ -70.676674558373037, -33.582439419536989 ], [ -70.663240964764725, -33.585164051695827 ], [ -70.663244485262325, -33.585174728469916 ], [ -70.666814114418628, -33.596524302069867 ], [ -70.6706152133725, -33.607477493413057 ], [ -70.665907599312604, -33.607939104519787 ], [ -70.643157294923384, -33.609909163413811 ], [ -70.644347259044267, -33.619621254124027 ], [ -70.642213891398512, -33.619832499528925 ], [ -70.64314167591553, -33.6272230464918 ], [ -70.629111125749787, -33.627768555075157 ], [ -70.628691557714873, -33.627793975336964 ], [ -70.62977271519361, -33.632315745448849 ], [ -70.631233939987595, -33.642839604138139 ], [ -70.63338842702565, -33.644669864563674 ], [ -70.637237917325578, -33.64532193726523 ], [ -70.640578957581411, -33.64709630469293 ], [ -70.643809267003761, -33.647847992853606 ], [ -70.6480777549084, -33.6493806549109 ], [ -70.652394013423191, -33.650530296375514 ], [ -70.65699130897633, -33.650132544469649 ], [ -70.659316668157842, -33.651323908023407 ], [ -70.660239976369809, -33.653901497196749 ], [ -70.661727908975479, -33.655081600591785 ], [ -70.66753622875305, -33.657769469808279 ], [ -70.670070516306723, -33.658407731608165 ], [ -70.673429424053566, -33.660104486809871 ], [ -70.676803680415333, -33.66070057379811 ], [ -70.680643987238099, -33.661764062594862 ], [ -70.685347223807639, -33.661149791559716 ], [ -70.688190695312443, -33.662639298305415 ], [ -70.691380603004873, -33.663145823672174 ], [ -70.695960428122348, -33.662762069837292 ], [ -70.698009752085056, -33.662886774693945 ], [ -70.701373565531682, -33.66479662752522 ], [ -70.706067973458588, -33.665587739032205 ], [ -70.7100325316582, -33.665517646970677 ], [ -70.71124127775505, -33.667487612963448 ], [ -70.7132821225198, -33.669018151125023 ], [ -70.714189527856277, -33.670533800247746 ], [ -70.714432534717048, -33.674488527796257 ], [ -70.716100376517957, -33.681159023748741 ], [ -70.718248489110778, -33.685301195512324 ], [ -70.721110453334035, -33.687645411632495 ], [ -70.722684975448246, -33.690511781296188 ], [ -70.724346943165514, -33.691344419034202 ], [ -70.725918242124521, -33.693125805519934 ], [ -70.727618092695621, -33.694018961829123 ], [ -70.730292713266365, -33.694287140027811 ], [ -70.733349434938148, -33.695375212438407 ], [ -70.736030034695432, -33.697752121320661 ], [ -70.741958837417187, -33.698004844123652 ], [ -70.744496739791572, -33.698733096163146 ], [ -70.749866714948112, -33.701178722646212 ], [ -70.75320529022683, -33.701712091974123 ], [ -70.756677731550852, -33.703435483189011 ], [ -70.76068610418011, -33.703638141649868 ], [ -70.763981657343223, -33.70563902096616 ], [ -70.768146583868628, -33.70722985542313 ], [ -70.770178162511229, -33.710883754907826 ], [ -70.774404641599915, -33.71366549804474 ], [ -70.776535250519416, -33.715896623699031 ], [ -70.780289242718112, -33.717034564616235 ], [ -70.783133042107991, -33.720141682386696 ], [ -70.785895439760097, -33.72195085879919 ], [ -70.790984535981806, -33.727470239362781 ], [ -70.79568195146831, -33.730840461557285 ], [ -70.798352764978858, -33.730862750198973 ], [ -70.80265038255321, -33.733459096025172 ], [ -70.804583454636713, -33.733186335851322 ], [ -70.807697639740567, -33.7342868963432 ], [ -70.810601416048712, -33.736689426650905 ], [ -70.811690852401128, -33.738048863285236 ], [ -70.81243272158693, -33.740269124151993 ], [ -70.812299524786482, -33.746979747920157 ], [ -70.814377551719161, -33.750968356136248 ], [ -70.816326434151648, -33.75142871947201 ], [ -70.817742073936529, -33.752630378505984 ], [ -70.821078234543748, -33.754249953079714 ], [ -70.824754124516687, -33.751575358578435 ], [ -70.826079396478931, -33.748572455190292 ], [ -70.82593661645106, -33.745996376802637 ], [ -70.825075605505731, -33.741773535213589 ], [ -70.823727649285928, -33.740578048926864 ], [ -70.821682484522981, -33.739761087933189 ], [ -70.820521516222826, -33.736978995188842 ], [ -70.821263685445942, -33.733505899691679 ], [ -70.821071545688127, -33.73067272204802 ], [ -70.821324209438203, -33.726985893318371 ], [ -70.822851388540343, -33.724164127512118 ], [ -70.823552194836211, -33.721870251494401 ], [ -70.82438778615392, -33.721047312062979 ], [ -70.823649000884487, -33.720436963659608 ], [ -70.820290875570251, -33.719746542579323 ], [ -70.818434735207703, -33.719823240366985 ], [ -70.811894528323791, -33.722835785058528 ], [ -70.809842979234119, -33.722202947786407 ], [ -70.806359968332458, -33.720246552282859 ], [ -70.80683643835242, -33.718668024660332 ], [ -70.805702867770108, -33.715075211870619 ], [ -70.804692125633252, -33.714162374892553 ], [ -70.804301417773459, -33.711711979953918 ], [ -70.803324964330969, -33.710525522539136 ], [ -70.798994671436489, -33.707400351173838 ], [ -70.797704944911729, -33.704378690153064 ], [ -70.795686718827525, -33.703350346135672 ], [ -70.794262006956572, -33.700752124047774 ], [ -70.79183904671774, -33.698124193015552 ], [ -70.791445950237616, -33.696047573680318 ], [ -70.792776426140307, -33.694696493008074 ], [ -70.793853514250799, -33.691467246753604 ], [ -70.793854061324808, -33.690268950522871 ], [ -70.796325849490927, -33.686686255271667 ], [ -70.795620423159534, -33.683513336445706 ], [ -70.799129380101547, -33.680285757848473 ], [ -70.799451939068945, -33.677976748677104 ], [ -70.801239522703952, -33.674947329982786 ], [ -70.801966594840394, -33.672643128027971 ], [ -70.803548459783784, -33.672147261786705 ], [ -70.803298172975943, -33.669706170360101 ], [ -70.802464791513827, -33.668411890427215 ], [ -70.798754404437346, -33.668281204292789 ], [ -70.797841653226612, -33.665312905361127 ], [ -70.795227767752223, -33.663867909674735 ], [ -70.793686239860051, -33.662225198146103 ], [ -70.792532904544871, -33.660163221928265 ], [ -70.787281211460098, -33.656934278681 ], [ -70.785252319678506, -33.655157625554885 ], [ -70.784054900439074, -33.653341901047142 ], [ -70.782955743417006, -33.653182683517997 ], [ -70.760054903844051, -33.661727375703506 ], [ -70.757196815851245, -33.662908583015614 ], [ -70.754205798755976, -33.662850684930071 ], [ -70.751775776860697, -33.663307270281592 ], [ -70.74915734950423, -33.664425945030509 ], [ -70.74177862459139, -33.663237197296951 ], [ -70.737887497378068, -33.656425552797963 ], [ -70.736292965290886, -33.65044341617488 ], [ -70.735598455286848, -33.646413995251294 ], [ -70.737989834353556, -33.64492817866681 ], [ -70.740493173149076, -33.640938921993325 ], [ -70.741116573413521, -33.639136997446236 ], [ -70.74306670809753, -33.636350837930628 ], [ -70.743743179032322, -33.63445625325717 ], [ -70.746286789302033, -33.63248928206481 ], [ -70.748363857732301, -33.629195580191563 ], [ -70.752549108641006, -33.626883463032492 ], [ -70.754593691295668, -33.623360077558203 ], [ -70.756912345451923, -33.621166264575763 ], [ -70.756791242670147, -33.620616220670435 ], [ -70.749066051026958, -33.619070586947025 ], [ -70.746727013198594, -33.617540399405648 ], [ -70.7469683231418, -33.615881839062503 ], [ -70.748383952146881, -33.612505430849033 ], [ -70.751286300133728, -33.609291909880582 ], [ -70.752063745299736, -33.60698207997774 ], [ -70.754357832329617, -33.603593084942034 ], [ -70.753332139531466, -33.601290120614578 ], [ -70.750380376119153, -33.599351579321244 ], [ -70.745894508492199, -33.597160481222339 ], [ -70.743484589096326, -33.595000918642278 ], [ -70.745338106378256, -33.592135340270282 ], [ -70.746065111141064, -33.589988777281562 ], [ -70.747309860816173, -33.588424270907666 ], [ -70.750169714896813, -33.586210678345772 ], [ -70.750838737899613, -33.584470111678655 ], [ -70.753100069659268, -33.58204388952187 ], [ -70.752783197027654, -33.579433295812116 ], [ -70.756447104373009, -33.575661238614238 ], [ -70.758354401994353, -33.574234523309812 ], [ -70.761717274006557, -33.574076171488876 ], [ -70.763488879307616, -33.574640304652966 ], [ -70.764953794380773, -33.573109202907759 ], [ -70.766739235533834, -33.572199816552775 ] ] ] } },
{ "type": "Feature", "properties": { "comuna": "Las Condes" }, "geometry": { "type": "Polygon", "coordinates": [ [ [ -70.517573281734158, -33.372763869766821 ], [ -70.517609137988728, -33.372706477841547 ], [ -70.512634632661275, -33.370998876132987 ], [ -70.504398055279665, -33.369556584100152 ], [ -70.499274801517572, -33.367159019924777 ], [ -70.495698854509882, -33.366956361882096 ], [ -70.492776062663822, -33.364619611316989 ], [ -70.488489559046158, -33.364711789184611 ], [ -70.484455886265224, -33.364277510765199 ], [ -70.478502355618659, -33.366314211918798 ], [ -70.476532323251121, -33.367381342735975 ], [ -70.475475230740528, -33.368779784876537 ], [ -70.480996372596465, -33.371221326418855 ], [ -70.481307066615571, -33.372823563240459 ], [ -70.483502082046016, -33.376842236429958 ], [ -70.483612343958939, -33.379160695166682 ], [ -70.482929848921827, -33.380715395227746 ], [ -70.479522889392115, -33.384681927390808 ], [ -70.480122265112612, -33.386578238396304 ], [ -70.479176097471623, -33.389325686234073 ], [ -70.477295198641528, -33.391311099498822 ], [ -70.47713377048666, -33.394346629049259 ], [ -70.473454222573878, -33.394806698384627 ], [ -70.469410008063093, -33.394676238540683 ], [ -70.467431885468102, -33.395115966917608 ], [ -70.462826443991986, -33.395348847216091 ], [ -70.459372267214306, -33.39657922465188 ], [ -70.454491985278707, -33.397350296208764 ], [ -70.453401222114636, -33.399980304642234 ], [ -70.453421444988308, -33.405452485842034 ], [ -70.454050061769635, -33.409133092843049 ], [ -70.453534735122062, -33.416514929010447 ], [ -70.451523726102835, -33.419274720399542 ], [ -70.44872647291939, -33.421686748466911 ], [ -70.444869231955224, -33.424348965482004 ], [ -70.436181894337082, -33.426650703581743 ], [ -70.43498497725588, -33.427199898996705 ], [ -70.434017420727983, -33.428757635141046 ], [ -70.433658337159457, -33.432806678492753 ], [ -70.432210860182593, -33.435381079234318 ], [ -70.430917843128938, -33.438727062111077 ], [ -70.432136859664439, -33.443828477125038 ], [ -70.431468521177891, -33.446334539130291 ], [ -70.429377317756632, -33.448618968214952 ], [ -70.428647682726677, -33.451720458927973 ], [ -70.429181396091479, -33.453974680350363 ], [ -70.428114484096525, -33.458150729172459 ], [ -70.42960083387068, -33.462237873427611 ], [ -70.430686664385519, -33.463533986885714 ], [ -70.433260606270807, -33.464693870534447 ], [ -70.434632268132617, -33.466105589528787 ], [ -70.435445128480396, -33.468059101751606 ], [ -70.435323909815963, -33.469309598693663 ], [ -70.433526861531121, -33.472245045215736 ], [ -70.433403566860051, -33.473376690214657 ], [ -70.434416459563721, -33.480970191367867 ], [ -70.436169506569328, -33.481850557142209 ], [ -70.437758397236522, -33.483497683119445 ], [ -70.439152935595388, -33.486605138610365 ], [ -70.445862696794237, -33.48541232414771 ], [ -70.449972398489237, -33.483167778519771 ], [ -70.452112369650635, -33.482454232022874 ], [ -70.458533581200442, -33.478084111671038 ], [ -70.461120615132685, -33.476053856670923 ], [ -70.465725947912645, -33.475409394483449 ], [ -70.47198560105187, -33.475433534093412 ], [ -70.475044990720022, -33.473593976286516 ], [ -70.476738004213516, -33.47193464642239 ], [ -70.478802695655787, -33.469123361335591 ], [ -70.483543868978074, -33.465001547979021 ], [ -70.48579304114206, -33.463859910465068 ], [ -70.486946763631124, -33.461752400692248 ], [ -70.487826452347818, -33.459245747723642 ], [ -70.488786637300521, -33.458217930467384 ], [ -70.489682532523247, -33.45571557622695 ], [ -70.492816207475542, -33.453710833088586 ], [ -70.496357395969952, -33.450389730610091 ], [ -70.496215450476953, -33.446686823949364 ], [ -70.500495675769088, -33.443160018037013 ], [ -70.502897172560836, -33.439557520323156 ], [ -70.504555067316602, -33.438193247767437 ], [ -70.509478197094637, -33.435707353011978 ], [ -70.515024922071547, -33.435377506397174 ], [ -70.516956732022052, -33.434707201761583 ], [ -70.519490418602814, -33.433169390680959 ], [ -70.523028502519594, -33.431611603270326 ], [ -70.537933852770266, -33.433433015552374 ], [ -70.538757634835264, -33.431660849225615 ], [ -70.539081268187729, -33.42892544293759 ], [ -70.54691934482446, -33.429872522194394 ], [ -70.554075221969811, -33.430428130348133 ], [ -70.565075748394023, -33.430939408817714 ], [ -70.57860025510233, -33.431351910966185 ], [ -70.584437580582076, -33.431783573782049 ], [ -70.58444555672348, -33.431783924633287 ], [ -70.587420290057608, -33.428939431716593 ], [ -70.59788169436068, -33.420770564452177 ], [ -70.602567802752688, -33.417372898723968 ], [ -70.604668843624609, -33.417057164329798 ], [ -70.607872985122739, -33.415484036576011 ], [ -70.60652766186503, -33.410696120234803 ], [ -70.605869689038542, -33.409278193318649 ], [ -70.602263121157762, -33.408404157609574 ], [ -70.599674592428897, -33.408338938669218 ], [ -70.59778065275583, -33.40767295234027 ], [ -70.59414978814155, -33.406338725907595 ], [ -70.58664482657511, -33.40416878646873 ], [ -70.571943873594307, -33.398143670362423 ], [ -70.565831362701985, -33.396320203060263 ], [ -70.55413744287965, -33.392324759766566 ], [ -70.543428814125562, -33.388143328409086 ], [ -70.533885184412284, -33.383816178117229 ], [ -70.5270933360611, -33.377147134715017 ], [ -70.524944225439995, -33.375874087439385 ], [ -70.517573281734158, -33.372763869766821 ] ] ] } },
{ "type": "Feature", "properties": { "comuna": "Maipú" }, "geometry": { "type": "Polygon", "coordinates": [ [ [ -70.734426645219514, -33.469970395666103 ], [ -70.733805420674685, -33.469624492529391 ], [ -70.722781096081988, -33.473007064281518 ], [ -70.722627364692457, -33.473316537565914 ], [ -70.722372647393655, -33.47339477661442 ], [ -70.723734983844508, -33.480465920449205 ], [ -70.724673063953006, -33.48267963734498 ], [ -70.726631287966129, -33.482276873007294 ], [ -70.728570430864309, -33.483397202385667 ], [ -70.731456569650149, -33.482758212589538 ], [ -70.731547904958347, -33.494906627662658 ], [ -70.733336689640893, -33.496375527201231 ], [ -70.740087143623782, -33.510122776183785 ], [ -70.73392705076752, -33.509764166937302 ], [ -70.723336897222993, -33.51003564516413 ], [ -70.718522791479401, -33.514083481175497 ], [ -70.719855945259965, -33.516129875018642 ], [ -70.723916021323717, -33.520757137215128 ], [ -70.726524445939489, -33.52407644486145 ], [ -70.732825992011996, -33.531863610537634 ], [ -70.744415943518291, -33.545204289365124 ], [ -70.754553187157825, -33.556490053150846 ], [ -70.763376830645583, -33.566433012817576 ], [ -70.767418492144344, -33.571961058244163 ], [ -70.767613106760749, -33.571892651138114 ], [ -70.77313593924606, -33.570856000212615 ], [ -70.778664158029784, -33.569180828118213 ], [ -70.785559397978616, -33.567431658204107 ], [ -70.788710393347898, -33.564910702964923 ], [ -70.798677092729051, -33.556221898586024 ], [ -70.799816073864307, -33.55494568297474 ], [ -70.804642765903324, -33.550945294891484 ], [ -70.815989248814788, -33.543720322856075 ], [ -70.813727121147807, -33.541299469548768 ], [ -70.81091768680912, -33.539493676062193 ], [ -70.80851087827908, -33.53842806284284 ], [ -70.805584870464301, -33.535910666223906 ], [ -70.805546993898645, -33.53409354467378 ], [ -70.804202631838294, -33.532653905644096 ], [ -70.804459267040244, -33.530774868629564 ], [ -70.805248445102194, -33.530090444236521 ], [ -70.808899623319974, -33.528789566694002 ], [ -70.812888108147163, -33.530972053749061 ], [ -70.814464946118207, -33.533425582778897 ], [ -70.816183973025673, -33.534815655484671 ], [ -70.817647715797392, -33.537467450512324 ], [ -70.818647301756755, -33.538121033394681 ], [ -70.821029115562325, -33.537535659505572 ], [ -70.82529226927079, -33.537119019610415 ], [ -70.827197407342197, -33.536186773710902 ], [ -70.829226969266983, -33.536707161627987 ], [ -70.830572123641417, -33.535940341177465 ], [ -70.836173576680366, -33.53444218994467 ], [ -70.839000948578658, -33.534950582268984 ], [ -70.843491842279633, -33.53421545626248 ], [ -70.845995684131708, -33.534964456593926 ], [ -70.847801615856397, -33.535998929544128 ], [ -70.852249700342526, -33.537662128473357 ], [ -70.852364452035232, -33.536441722879189 ], [ -70.856227651524705, -33.533164383423951 ], [ -70.857969775914754, -33.530974130987516 ], [ -70.860010054740883, -33.530333080403729 ], [ -70.863267552573603, -33.530838960619604 ], [ -70.865650900701681, -33.530747591142095 ], [ -70.86792080238915, -33.531545768038264 ], [ -70.86977659151043, -33.531573233227491 ], [ -70.8717226047239, -33.532709102634747 ], [ -70.876539914758084, -33.531803850465032 ], [ -70.878762013496015, -33.530382888802528 ], [ -70.880214436596859, -33.530138850962558 ], [ -70.883421400601591, -33.528314422162147 ], [ -70.885707676780058, -33.528335174215144 ], [ -70.888260711275407, -33.526908930756875 ], [ -70.890300378348826, -33.523215484627165 ], [ -70.891870576871597, -33.522303699274154 ], [ -70.892358178814561, -33.520354055730088 ], [ -70.894931349945324, -33.519870728580749 ], [ -70.898719151138039, -33.517371208142201 ], [ -70.901031575477788, -33.514061834427864 ], [ -70.90494779802691, -33.511393575530953 ], [ -70.909809006034095, -33.509543025076155 ], [ -70.91212913612236, -33.509618254837484 ], [ -70.914872159808723, -33.510852095532194 ], [ -70.917649729107652, -33.510642682051397 ], [ -70.919737128163689, -33.511259015699693 ], [ -70.921310195007166, -33.511418267605009 ], [ -70.92311642766748, -33.509226137180093 ], [ -70.92806430333664, -33.508316809469193 ], [ -70.930061602267998, -33.505788664652101 ], [ -70.930046511469541, -33.502126599606321 ], [ -70.92830999616011, -33.498491270261745 ], [ -70.926151974251397, -33.496749172836886 ], [ -70.925698209150241, -33.494203707828888 ], [ -70.924221986084277, -33.490342349331272 ], [ -70.921425786624653, -33.488317463411136 ], [ -70.91516846641025, -33.487480161502575 ], [ -70.913275211253421, -33.48638366636829 ], [ -70.912362787029451, -33.484733692775791 ], [ -70.910825225199261, -33.483876407923887 ], [ -70.906073163397394, -33.48292181457181 ], [ -70.894995921746244, -33.478490988810925 ], [ -70.89194929893489, -33.478048062958464 ], [ -70.88582298722487, -33.478337223248218 ], [ -70.883715736299379, -33.478124609603064 ], [ -70.879128862101865, -33.476677044603861 ], [ -70.876736215512281, -33.476762212331614 ], [ -70.870173255200541, -33.47847662064602 ], [ -70.862832208325685, -33.479321366686293 ], [ -70.860157953369253, -33.479899937047065 ], [ -70.849528084407694, -33.479912210776973 ], [ -70.848346782741075, -33.479293561224857 ], [ -70.847943477806069, -33.476803371757974 ], [ -70.843857054155023, -33.471382488062297 ], [ -70.842144673882345, -33.467737143149428 ], [ -70.840667611789911, -33.466926970658257 ], [ -70.834943250355437, -33.466865074973356 ], [ -70.829194207708568, -33.465628525624062 ], [ -70.826769957488978, -33.466985826822047 ], [ -70.818533170799924, -33.466862224335607 ], [ -70.814544889890286, -33.466039729004777 ], [ -70.8097418864253, -33.462536930809534 ], [ -70.806449800759182, -33.46097840045983 ], [ -70.804705040712079, -33.463071358237386 ], [ -70.796626262291596, -33.463133848666239 ], [ -70.796661423250129, -33.460440851474779 ], [ -70.783868202675265, -33.462471087058887 ], [ -70.779829120239697, -33.462798245922038 ], [ -70.779796047864181, -33.462800306061503 ], [ -70.777196057530645, -33.462896427363553 ], [ -70.775809145868536, -33.458210664513039 ], [ -70.765051553541554, -33.4592583706225 ], [ -70.763462496686031, -33.463821444248786 ], [ -70.753674528808759, -33.465647043041088 ], [ -70.737915610154886, -33.468452626567455 ], [ -70.736946260589662, -33.471410907523833 ], [ -70.734426645219514, -33.469970395666103 ] ] ] } }
]
}
